STARLINK-36937          
1 68113U 26044N   26095.58336806 -.01923259  00000+0 -44816-1 0  9992
2 68113  97.2857  56.9054 0001468 106.4605 264.7787 15.45477848  5671
STARLINK-36229          
1 68114U 26044P   26095.58336806 -.01942782  00000+0 -46289-1 0  9991
2 68114  97.2851  56.9002 0001513 101.7538 261.1262 15.44862560  5726
STARLINK-36392          
1 68115U 26044Q   26095.58336806 -.01982781  00000+0 -43680-1 0  9997
2 68115  97.2855  56.8778 0001669 102.5280 218.2777 15.47202045  5728
STARLINK-36805          
1 68116U 26044R   26095.58336806 -.01945594  00000+0 -39457-1 0  9996
2 68116  97.2853  56.8921 0001616 109.1104 245.5601 15.49499549  5725
STARLINK-36844          
1 68117U 26044S   26095.58336806 -.01988062  00000+0 -44816-1 0  9999
2 68117  97.2853  56.9138 0001963  81.4966 324.0195 15.46545041  5671
STARLINK-36789          
1 68118U 26044T   26095.58336806 -.01928226  00000+0 -43840-1 0  9992
2 68118  97.2856  56.9252 0001765  91.2210 334.0183 15.46198165  5672
STARLINK-36850          
1 68119U 26044U   26095.58336806 -.01950217  00000+0 -42951-1 0  9990
2 68119  97.2855  56.9271 0001844  89.9201 339.6495 15.47152895  5673
STARLINK-36868          
1 68120U 26044V   26095.58336806 -.01927438  00000+0 -42978-1 0  9990
2 68120  97.2854  56.9353 0001896  88.0544   0.9387 15.46757726  5673
STARLINK-36855          
1 68121U 26044W   26095.58336806 -.01907296  00000+0 -38430-1 0  9999
2 68121  97.2855  56.9215 0001828  94.5146 328.8176 15.49618173  5670
STARLINK-36366          
1 68122U 26044X   26095.58336806 -.00738068  00000+0 -14539-1 0  9992
2 68122  97.2855  56.9264 0001849  95.8401 336.3544 15.49464370  5723
STARLINK-36922          
1 68123U 26044Y   26095.58336806 -.00246045  00000+0 -46445-2 0  9994
2 68123  97.2855  56.9385 0001523  76.3699  21.0667 15.49312856  5725
STARLINK-36938          
1 68124U 26044Z   26095.60920167  .00254377  00000+0  16463-2 0  9999
2 68124  97.2841  57.1684 0002656  77.2423 282.9139 15.75325059  5729
