CCSDS_OMM_VERS = 2.0
CREATION_DATE  = 
ORIGINATOR     = 

OBJECT_NAME    = STARLINK-36937
OBJECT_ID      = 2026-044N
CENTER_NAME    = EARTH
REF_FRAME      = TEME
TIME_SYSTEM    = UTC
MEAN_ELEMENT_THEORY = SGP/SGP4

EPOCH          = 2026-04-05T14:00:03.000384
MEAN_MOTION    = 15.45477848
ECCENTRICITY   = .00014687
INCLINATION    = 97.2857
RA_OF_ASC_NODE = 56.9054
ARG_OF_PERICENTER = 106.4605
MEAN_ANOMALY   = 264.7787

EPHEMERIS_TYPE = 0
CLASSIFICATION_TYPE = U
NORAD_CAT_ID   = 68113
ELEMENT_SET_NO = 999
REV_AT_EPOCH   = 567
BSTAR          = -.4481607E-1
MEAN_MOTION_DOT = -.1923259E-1
MEAN_MOTION_DDOT = 0

CCSDS_OMM_VERS = 2.0
CREATION_DATE  = 
ORIGINATOR     = 

OBJECT_NAME    = STARLINK-36229
OBJECT_ID      = 2026-044P
CENTER_NAME    = EARTH
REF_FRAME      = TEME
TIME_SYSTEM    = UTC
MEAN_ELEMENT_THEORY = SGP/SGP4

EPOCH          = 2026-04-05T14:00:03.000384
MEAN_MOTION    = 15.44862560
ECCENTRICITY   = .00015132
INCLINATION    = 97.2851
RA_OF_ASC_NODE = 56.9002
ARG_OF_PERICENTER = 101.7538
MEAN_ANOMALY   = 261.1262

EPHEMERIS_TYPE = 0
CLASSIFICATION_TYPE = U
NORAD_CAT_ID   = 68114
ELEMENT_SET_NO = 999
REV_AT_EPOCH   = 572
BSTAR          = -.46288713E-1
MEAN_MOTION_DOT = -.1942782E-1
MEAN_MOTION_DDOT = 0

CCSDS_OMM_VERS = 2.0
CREATION_DATE  = 
ORIGINATOR     = 

OBJECT_NAME    = STARLINK-36392
OBJECT_ID      = 2026-044Q
CENTER_NAME    = EARTH
REF_FRAME      = TEME
TIME_SYSTEM    = UTC
MEAN_ELEMENT_THEORY = SGP/SGP4

EPOCH          = 2026-04-05T14:00:03.000384
MEAN_MOTION    = 15.47202045
ECCENTRICITY   = .00016695
INCLINATION    = 97.2855
RA_OF_ASC_NODE = 56.8778
ARG_OF_PERICENTER = 102.5280
MEAN_ANOMALY   = 218.2777

EPHEMERIS_TYPE = 0
CLASSIFICATION_TYPE = U
NORAD_CAT_ID   = 68115
ELEMENT_SET_NO = 999
REV_AT_EPOCH   = 572
BSTAR          = -.43679823E-1
MEAN_MOTION_DOT = -.1982781E-1
MEAN_MOTION_DDOT = 0

CCSDS_OMM_VERS = 2.0
CREATION_DATE  = 
ORIGINATOR     = 

OBJECT_NAME    = STARLINK-36805
OBJECT_ID      = 2026-044R
CENTER_NAME    = EARTH
REF_FRAME      = TEME
TIME_SYSTEM    = UTC
MEAN_ELEMENT_THEORY = SGP/SGP4

EPOCH          = 2026-04-05T14:00:03.000384
MEAN_MOTION    = 15.49499549
ECCENTRICITY   = .00016166
INCLINATION    = 97.2853
RA_OF_ASC_NODE = 56.8921
ARG_OF_PERICENTER = 109.1104
MEAN_ANOMALY   = 245.5601

EPHEMERIS_TYPE = 0
CLASSIFICATION_TYPE = U
NORAD_CAT_ID   = 68116
ELEMENT_SET_NO = 999
REV_AT_EPOCH   = 572
BSTAR          = -.3945735E-1
MEAN_MOTION_DOT = -.1945594E-1
MEAN_MOTION_DDOT = 0

CCSDS_OMM_VERS = 2.0
CREATION_DATE  = 
ORIGINATOR     = 

OBJECT_NAME    = STARLINK-36844
OBJECT_ID      = 2026-044S
CENTER_NAME    = EARTH
REF_FRAME      = TEME
TIME_SYSTEM    = UTC
MEAN_ELEMENT_THEORY = SGP/SGP4

EPOCH          = 2026-04-05T14:00:03.000384
MEAN_MOTION    = 15.46545041
ECCENTRICITY   = .00019637
INCLINATION    = 97.2853
RA_OF_ASC_NODE = 56.9138
ARG_OF_PERICENTER = 81.4966
MEAN_ANOMALY   = 324.0195

EPHEMERIS_TYPE = 0
CLASSIFICATION_TYPE = U
NORAD_CAT_ID   = 68117
ELEMENT_SET_NO = 999
REV_AT_EPOCH   = 567
BSTAR          = -.44815876E-1
MEAN_MOTION_DOT = -.1988062E-1
MEAN_MOTION_DDOT = 0

CCSDS_OMM_VERS = 2.0
CREATION_DATE  = 
ORIGINATOR     = 

OBJECT_NAME    = STARLINK-36789
OBJECT_ID      = 2026-044T
CENTER_NAME    = EARTH
REF_FRAME      = TEME
TIME_SYSTEM    = UTC
MEAN_ELEMENT_THEORY = SGP/SGP4

EPOCH          = 2026-04-05T14:00:03.000384
MEAN_MOTION    = 15.46198165
ECCENTRICITY   = .00017658
INCLINATION    = 97.2856
RA_OF_ASC_NODE = 56.9252
ARG_OF_PERICENTER = 91.2210
MEAN_ANOMALY   = 334.0183

EPHEMERIS_TYPE = 0
CLASSIFICATION_TYPE = U
NORAD_CAT_ID   = 68118
ELEMENT_SET_NO = 999
REV_AT_EPOCH   = 567
BSTAR          = -.43839613E-1
MEAN_MOTION_DOT = -.1928226E-1
MEAN_MOTION_DDOT = 0

CCSDS_OMM_VERS = 2.0
CREATION_DATE  = 
ORIGINATOR     = 

OBJECT_NAME    = STARLINK-36850
OBJECT_ID      = 2026-044U
CENTER_NAME    = EARTH
REF_FRAME      = TEME
TIME_SYSTEM    = UTC
MEAN_ELEMENT_THEORY = SGP/SGP4

EPOCH          = 2026-04-05T14:00:03.000384
MEAN_MOTION    = 15.47152895
ECCENTRICITY   = .00018442
INCLINATION    = 97.2855
RA_OF_ASC_NODE = 56.9271
ARG_OF_PERICENTER = 89.9201
MEAN_ANOMALY   = 339.6495

EPHEMERIS_TYPE = 0
CLASSIFICATION_TYPE = U
NORAD_CAT_ID   = 68119
ELEMENT_SET_NO = 999
REV_AT_EPOCH   = 567
BSTAR          = -.42951181E-1
MEAN_MOTION_DOT = -.1950217E-1
MEAN_MOTION_DDOT = 0

CCSDS_OMM_VERS = 2.0
CREATION_DATE  = 
ORIGINATOR     = 

OBJECT_NAME    = STARLINK-36868
OBJECT_ID      = 2026-044V
CENTER_NAME    = EARTH
REF_FRAME      = TEME
TIME_SYSTEM    = UTC
MEAN_ELEMENT_THEORY = SGP/SGP4

EPOCH          = 2026-04-05T14:00:03.000384
MEAN_MOTION    = 15.46757726
ECCENTRICITY   = .00018963
INCLINATION    = 97.2854
RA_OF_ASC_NODE = 56.9353
ARG_OF_PERICENTER = 88.0544
MEAN_ANOMALY   = 0.9387

EPHEMERIS_TYPE = 0
CLASSIFICATION_TYPE = U
NORAD_CAT_ID   = 68120
ELEMENT_SET_NO = 999
REV_AT_EPOCH   = 567
BSTAR          = -.4297772E-1
MEAN_MOTION_DOT = -.1927438E-1
MEAN_MOTION_DDOT = 0

CCSDS_OMM_VERS = 2.0
CREATION_DATE  = 
ORIGINATOR     = 

OBJECT_NAME    = STARLINK-36855
OBJECT_ID      = 2026-044W
CENTER_NAME    = EARTH
REF_FRAME      = TEME
TIME_SYSTEM    = UTC
MEAN_ELEMENT_THEORY = SGP/SGP4

EPOCH          = 2026-04-05T14:00:03.000384
MEAN_MOTION    = 15.49618173
ECCENTRICITY   = .00018281
INCLINATION    = 97.2855
RA_OF_ASC_NODE = 56.9215
ARG_OF_PERICENTER = 94.5146
MEAN_ANOMALY   = 328.8176

EPHEMERIS_TYPE = 0
CLASSIFICATION_TYPE = U
NORAD_CAT_ID   = 68121
ELEMENT_SET_NO = 999
REV_AT_EPOCH   = 567
BSTAR          = -.38430465E-1
MEAN_MOTION_DOT = -.1907296E-1
MEAN_MOTION_DDOT = 0

CCSDS_OMM_VERS = 2.0
CREATION_DATE  = 
ORIGINATOR     = 

OBJECT_NAME    = STARLINK-36366
OBJECT_ID      = 2026-044X
CENTER_NAME    = EARTH
REF_FRAME      = TEME
TIME_SYSTEM    = UTC
MEAN_ELEMENT_THEORY = SGP/SGP4

EPOCH          = 2026-04-05T14:00:03.000384
MEAN_MOTION    = 15.49464370
ECCENTRICITY   = .0001849
INCLINATION    = 97.2855
RA_OF_ASC_NODE = 56.9264
ARG_OF_PERICENTER = 95.8401
MEAN_ANOMALY   = 336.3544

EPHEMERIS_TYPE = 0
CLASSIFICATION_TYPE = U
NORAD_CAT_ID   = 68122
ELEMENT_SET_NO = 999
REV_AT_EPOCH   = 572
BSTAR          = -.14538801E-1
MEAN_MOTION_DOT = -.738068E-2
MEAN_MOTION_DDOT = 0

CCSDS_OMM_VERS = 2.0
CREATION_DATE  = 
ORIGINATOR     = 

OBJECT_NAME    = STARLINK-36922
OBJECT_ID      = 2026-044Y
CENTER_NAME    = EARTH
REF_FRAME      = TEME
TIME_SYSTEM    = UTC
MEAN_ELEMENT_THEORY = SGP/SGP4

EPOCH          = 2026-04-05T14:00:03.000384
MEAN_MOTION    = 15.49312856
ECCENTRICITY   = .00015239
INCLINATION    = 97.2855
RA_OF_ASC_NODE = 56.9385
ARG_OF_PERICENTER = 76.3699
MEAN_ANOMALY   = 21.0667

EPHEMERIS_TYPE = 0
CLASSIFICATION_TYPE = U
NORAD_CAT_ID   = 68123
ELEMENT_SET_NO = 999
REV_AT_EPOCH   = 572
BSTAR          = -.46445304E-2
MEAN_MOTION_DOT = -.246045E-2
MEAN_MOTION_DDOT = 0

CCSDS_OMM_VERS = 2.0
CREATION_DATE  = 
ORIGINATOR     = 

OBJECT_NAME    = STARLINK-36938
OBJECT_ID      = 2026-044Z
CENTER_NAME    = EARTH
REF_FRAME      = TEME
TIME_SYSTEM    = UTC
MEAN_ELEMENT_THEORY = SGP/SGP4

EPOCH          = 2026-04-05T14:37:15.024288
MEAN_MOTION    = 15.75325059
ECCENTRICITY   = .00026569
INCLINATION    = 97.2841
RA_OF_ASC_NODE = 57.1684
ARG_OF_PERICENTER = 77.2423
MEAN_ANOMALY   = 282.9139

EPHEMERIS_TYPE = 0
CLASSIFICATION_TYPE = U
NORAD_CAT_ID   = 68124
ELEMENT_SET_NO = 999
REV_AT_EPOCH   = 572
BSTAR          = .1646304E-2
MEAN_MOTION_DOT = .254377E-2
MEAN_MOTION_DDOT = 0

